[{"OBJECT_NAME":"STARLINK-33589","OBJECT_ID":"2025-015B","EPOCH":"2026-03-09T22:12:35.273664","MEAN_MOTION":15.30213238,"ECCENTRICITY":0.0001719,"INCLINATION":53.1574,"RA_OF_ASC_NODE":321.6212,"ARG_OF_PERICENTER":134.9541,"MEAN_ANOMALY":225.1599,"EPHEMERIS_TYPE":0,"CLASSIFICATION_TYPE":"U","NORAD_CAT_ID":62759,"ELEMENT_SET_NO":999,"REV_AT_EPOCH":6375,"BSTAR":0.00086930504,"MEAN_MOTION_DOT":0.00025486,"MEAN_MOTION_DDOT":0},{"OBJECT_NAME":"OBJECT P","OBJECT_ID":"2018-099P","EPOCH":"2026-03-09T16:35:55.790016","MEAN_MOTION":15.30834106,"ECCENTRICITY":0.00076856,"INCLINATION":97.4366,"RA_OF_ASC_NODE":131.9195,"ARG_OF_PERICENTER":276.7627,"MEAN_ANOMALY":83.2739,"EPHEMERIS_TYPE":0,"CLASSIFICATION_TYPE":"U","NORAD_CAT_ID":43771,"ELEMENT_SET_NO":999,"REV_AT_EPOCH":39830,"BSTAR":0.00063632878,"MEAN_MOTION_DOT":0.00018926,"MEAN_MOTION_DDOT":0}]
